STARLINK-1271_new
1 15217C 20012AR  21326.16612763 -.00001344  00000-0 -90064-4 0  3261
2 15217  53.0534 227.9978 0001926  73.6163  35.1413 15.06398199    18
STARLINK-1271_old
1 25217C 20012AR  21325.11085662  .00008910  00000-0  59683-3 0  3251
2 25217  53.0534 232.7351 0001955  73.5474  69.2279 15.06396612    19
